NORAD_CAT_ID,OBJECT_NAME,OBJECT_TYPE,EPOCH,MEAN_MOTION,ECCENTRICITY,INCLINATION,RA_OF_ASC_NODE,ARG_OF_PERICENTER,MEAN_ANOMALY,BSTAR,MEAN_MOTION_DOT,MEAN_MOTION_DDOT,TLE_LINE0,TLE_LINE1,TLE_LINE2,SEMIMAJOR_AXIS,PERIOD,APOGEE,PERIGEE,DECAYED
52996.0,STARLINK-4295,PAYLOAD,2023-07-21 00:42:53,15.08844636,0.0001231,53.2159,95.6693,77.6764,282.4366,0.00031019,4.653e-05,0.0,0 STARLINK-4295,1 52996U 22076L   23202.02978705  .00004653  00000-0  31019-3 0  9990,2 52996  53.2159  95.6693 0001231  77.6764 282.4366 15.08844636 57985,6917.866,95.437,540.583,538.88,0.0
52996.0,STARLINK-4295,PAYLOAD,2023-07-23 17:53:42,15.08829093,0.0001134,53.2158,83.4776,90.3143,269.7979,-0.00021948,-3.778e-05,0.0,0 STARLINK-4295,1 52996U 22076L   23204.74563059 -.00003778  00000-0 -21948-3 0  9992,2 52996  53.2158  83.4776 0001134  90.3143 269.7979 15.08829093 57928,6917.914,95.438,540.563,538.994,0.0
52996.0,STARLINK-4295,PAYLOAD,2023-07-24 22:30:38,15.0884463,0.0001205,53.2158,78.1259,73.3891,286.7233,1.2842e-05,-8.3e-07,0.0,0 STARLINK-4295,1 52996U 22076L   23205.93794942 -.00000083  00000-0  12842-4 0  9990,2 52996  53.2158  78.1259 0001205  73.3891 286.7233 15.08844630 58102,6917.866,95.437,540.565,538.898,0.0
52996.0,STARLINK-4295,PAYLOAD,2023-07-25 23:56:49,15.08838474,8.79e-05,53.2167,73.3683,88.9674,271.1419,8.2156e-05,1.02e-05,0.0,0 STARLINK-4295,1 52996U 22076L   23206.99779442  .00001020  00000-0  82156-4 0  9991,2 52996  53.2167  73.3683 0000879  88.9674 271.1419 15.08838474 58267,6917.885,95.438,540.358,539.142,0.0
52996.0,STARLINK-4295,PAYLOAD,2023-07-27 01:22:59,15.08845974,7.93e-05,53.2172,68.607,99.1241,260.9841,0.00018504,2.659e-05,0.0,0 STARLINK-4295,1 52996U 22076L   23208.05762737  .00002659  00000-0  18504-3 0  9993,2 52996  53.2172  68.6070 0000793  99.1241 260.9841 15.08845974 58896,6917.862,95.437,540.276,539.179,0.0
52996.0,STARLINK-4295,PAYLOAD,2023-07-27 07:44:31,15.08839857,9.39e-05,53.2175,67.4162,78.6233,281.4865,8.2772e-05,1.03e-05,0.0,0 STARLINK-4295,1 52996U 22076L   23208.32259128  .00001030  00000-0  82772-4 0  9999,2 52996  53.2175  67.4162 0000939  78.6233 281.4865 15.08839857 58935,6917.881,95.438,540.395,539.096,0.0
52996.0,STARLINK-4295,PAYLOAD,2023-07-27 17:16:51,15.08831852,0.0001125,53.216,65.6383,83.9046,276.2074,-5.7699e-05,-1.206e-05,0.0,0 STARLINK-4295,1 52996U 22076L   23208.72003799 -.00001206  00000-0 -57699-4 0  9991,2 52996  53.2160  65.6383 0001125  83.9046 276.2074 15.08831852 58990,6917.905,95.438,540.549,538.992,0.0
52996.0,STARLINK-4295,PAYLOAD,2023-07-28 01:13:47,15.08831726,8.59e-05,53.2163,64.1485,81.0215,279.0874,-3.6736e-05,-8.72e-06,0.0,0 STARLINK-4295,1 52996U 22076L   23209.05123955 -.00000872  00000-0 -36736-4 0  9992,2 52996  53.2163  64.1485 0000859  81.0215 279.0874 15.08831726 58573,6917.906,95.438,540.365,539.176,0.0
52996.0,STARLINK-4295,PAYLOAD,2023-07-28 17:07:38,15.08843698,7.27e-05,53.2161,61.1753,80.2906,279.8169,4.5292e-05,4.33e-06,0.0,0 STARLINK-4295,1 52996U 22076L   23209.71363558  .00000433  00000-0  45292-4 0  9998,2 52996  53.2161  61.1753 0000727  80.2906 279.8169 15.08843698 59148,6917.869,95.437,540.237,539.231,0.0
52996.0,STARLINK-4295,PAYLOAD,2023-07-28 21:53:47,15.08850855,8.34e-05,53.2167,60.2833,75.0301,285.0784,0.00016377,2.32e-05,0.0,0 STARLINK-4295,1 52996U 22076L   23209.91235298  .00002320  00000-0  16377-3 0  9997,2 52996  53.2167  60.2833 0000834  75.0301 285.0784 15.08850855 59171,6917.847,95.437,540.289,539.135,0.0
52996.0,STARLINK-4295,PAYLOAD,2023-07-29 20:09:11,15.08849793,9.07e-05,53.2164,56.1211,70.6304,289.4786,0.00033921,5.116e-05,0.0,0 STARLINK-4295,1 52996U 22076L   23210.83971545  .00005116  00000-0  33921-3 0  9992,2 52996  53.2164  56.1211 0000907  70.6304 289.4786 15.08849793 59312,6917.85,95.437,540.343,539.088,0.0
52996.0,STARLINK-4295,PAYLOAD,2023-07-30 18:24:35,15.08843465,9.75e-05,53.2164,51.9549,86.3617,273.7486,3.4867e-05,2.67e-06,0.0,0 STARLINK-4295,1 52996U 22076L   23211.76707453  .00000267  00000-0  34867-4 0  9993,2 52996  53.2164  51.9549 0000975  86.3617 273.7486 15.08843465 59453,6917.87,95.437,540.409,539.06,0.0
52996.0,STARLINK-4295,PAYLOAD,2023-07-31 18:15:22,15.08836296,0.0001043,53.2177,47.492,99.0493,261.0617,8.0495e-05,9.93e-06,0.0,0 STARLINK-4295,1 52996U 22076L   23212.76067823  .00000993  00000-0  80495-4 0  9998,2 52996  53.2177  47.4920 0001043  99.0493 261.0617 15.08836296 59607,6917.892,95.438,540.478,539.035,0.0
52996.0,STARLINK-4295,PAYLOAD,2023-08-02 17:56:56,15.08842636,8.28e-05,53.2178,38.573,92.0329,268.0758,0.00012472,1.698e-05,0.0,0 STARLINK-4295,1 52996U 22076L   23214.74787675  .00001698  00000-0  12472-3 0  9994,2 52996  53.2178  38.5730 0000828  92.0329 268.0758 15.08842636 59900,6917.872,95.437,540.31,539.165,0.0
52996.0,STARLINK-4295,PAYLOAD,2023-08-03 19:23:06,15.08838204,7.83e-05,53.2169,33.8157,79.3038,280.8042,1.7027e-05,-1.7e-07,0.0,0 STARLINK-4295,1 52996U 22076L   23215.80771972 -.00000017  00000-0  17027-4 0  9992,2 52996  53.2169  33.8157 0000783  79.3038 280.8042 15.08838204 60069,6917.886,95.438,540.293,539.209,0.0
52996.0,STARLINK-4295,PAYLOAD,2023-08-05 11:07:45,15.08845358,8.61e-05,53.2169,26.3824,66.4666,293.6416,0.0002282,3.346e-05,0.0,0 STARLINK-4295,1 52996U 22076L   23217.46372043  .00003346  00000-0  22820-3 0  9995,2 52996  53.2169  26.3824 0000861  66.4666 293.6416 15.08845358 60311,6917.864,95.437,540.325,539.133,0.0
52996.0,STARLINK-4295,PAYLOAD,2023-08-05 17:29:17,15.08857443,9.74e-05,53.2169,25.1937,59.2794,300.8294,0.00040538,6.173e-05,0.0,0 STARLINK-4295,1 52996U 22076L   23217.72867492  .00006173  00000-0  40538-3 0  9998,2 52996  53.2169  25.1937 0000974  59.2794 300.8294 15.08857443 60357,6917.827,95.436,540.366,539.018,0.0
52996.0,STARLINK-4295,PAYLOAD,2023-08-06 10:58:33,15.08819664,8.23e-05,53.2168,21.9222,89.6789,270.4298,-0.00042639,-7.063e-05,0.0,0 STARLINK-4295,1 52996U 22076L   23218.45732760 -.00007063  00000-0 -42639-3 0  9993,2 52996  53.2168  21.9222 0000823  89.6789 270.4298 15.08819664 60462,6917.943,95.439,540.377,539.238,0.0
52996.0,STARLINK-4295,PAYLOAD,2023-08-07 04:27:48,15.08818902,7.86e-05,53.2172,18.6513,100.8497,259.2584,0.00079951,0.00012452,0.0,0 STARLINK-4295,1 52996U 22076L   23219.18597815  .00012452  00000-0  79951-3 0  9997,2 52996  53.2172  18.6513 0000786 100.8497 259.2584 15.08818902 60572,6917.945,95.439,540.354,539.266,0.0
52996.0,STARLINK-4295,PAYLOAD,2023-08-07 17:10:53,15.08845923,7.34e-05,53.2173,16.272,95.1445,264.9631,0.0012926,0.00020347,0.0,0 STARLINK-4295,1 52996U 22076L   23219.71589937  .00020347  00000-0  12926-2 0  9992,2 52996  53.2173  16.2720 0000734  95.1445 264.9631 15.08845923 60657,6917.862,95.437,540.235,539.22,0.0
52996.0,STARLINK-4295,PAYLOAD,2023-08-08 10:40:07,15.08863378,7.13e-05,53.2174,13.001,90.0508,270.0566,0.0010304,0.00016159,0.0,0 STARLINK-4295,1 52996U 22076L   23220.44453410  .00016159  00000-0  10304-2 0  9994,2 52996  53.2174  13.0010 0000713  90.0508 270.0566 15.08863378 60767,6917.809,95.436,540.167,539.181,0.0
52996.0,STARLINK-4295,PAYLOAD,2023-08-09 10:30:54,15.08845618,6.48e-05,53.2172,8.5409,90.5043,269.6024,-1.4855e-05,-5.24e-06,0.0,0 STARLINK-4295,1 52996U 22076L   23221.43812867 -.00000524  00000-0 -14855-4 0  9997,2 52996  53.2172   8.5409 0000648  90.5043 269.6024 15.08845618 60919,6917.863,95.437,540.176,539.28,0.0
52996.0,STARLINK-4295,PAYLOAD,2023-08-10 19:54:00,15.08849523,7.33e-05,53.2178,2.2954,80.0495,280.0579,0.00029979,4.488e-05,0.0,0 STARLINK-4295,1 52996U 22076L   23222.82916683  .00004488  00000-0  29979-3 0  9995,2 52996  53.2178   2.2954 0000733  80.0495 280.0579 15.08849523 61126,6917.851,95.437,540.223,539.209,0.0
52996.0,STARLINK-4295,PAYLOAD,2023-08-11 03:50:55,15.08840823,9.59e-05,53.2145,0.8072,92.8503,267.2599,0.00011283,1.508e-05,0.0,0 STARLINK-4295,1 52996U 22076L   23223.16036966  .00001508  00000-0  11283-3 0  9999,2 52996  53.2145   0.8072 0000959  92.8503 267.2599 15.08840823 61174,6917.878,95.438,540.406,539.079,0.0
52996.0,STARLINK-4295,PAYLOAD,2023-08-12 14:49:24,15.08839916,6.12e-05,53.2173,354.2673,76.7516,283.3544,9.8217e-05,1.276e-05,0.0,0 STARLINK-4295,1 52996U 22076L   23224.61765038  .00001276  00000-0  98217-4 0  9994,2 52996  53.2173 354.2673 0000612  76.7516 283.3544 15.08839916 61393,6917.881,95.438,540.169,539.322,0.0
52996.0,STARLINK-4295,PAYLOAD,2023-08-14 01:47:54,15.08842326,8.34e-05,53.2176,347.7271,56.8615,303.2457,0.00018026,2.582e-05,0.0,0 STARLINK-4295,1 52996U 22076L   23226.07493344  .00002582  00000-0  18026-3 0  9994,2 52996  53.2176 347.7271 0000834  56.8615 303.2457 15.08842326 61611,6917.873,95.437,540.315,539.161,0.0
52996.0,STARLINK-4295,PAYLOAD,2023-08-15 08:00:13,15.08848689,0.0001308,53.2167,342.0793,51.9675,308.1435,0.00020249,2.937e-05,0.0,0 STARLINK-4295,1 52996U 22076L   23227.33349246  .00002937  00000-0  20249-3 0  9999,2 52996  53.2167 342.0793 0001308  51.9675 308.1435 15.08848689 61806,6917.854,95.437,540.624,538.814,0.0
52996.0,STARLINK-4295,PAYLOAD,2023-08-16 11:01:46,15.08844119,0.0001044,53.2179,337.0182,94.9243,265.1868,-7.4262e-05,-1.47e-05,0.0,0 STARLINK-4295,1 52996U 22076L   23228.45957000 -.00001470  00000-0 -74262-4 0  9994,2 52996  53.2179 337.0182 0001044  94.9243 265.1868 15.08844119 61974,6917.868,95.437,540.455,539.011,0.0
52996.0,STARLINK-4295,PAYLOAD,2023-08-18 01:11:02,15.08839864,9.49e-05,53.2169,329.8858,90.5177,269.5924,0.00011422,1.531e-05,0.0,0 STARLINK-4295,1 52996U 22076L   23230.04933220  .00001531  00000-0  11422-3 0  9994,2 52996  53.2169 329.8858 0000949  90.5177 269.5924 15.08839864 62213,6917.881,95.438,540.402,539.089,0.0
52996.0,STARLINK-4295,PAYLOAD,2023-08-18 12:18:44,15.0883619,8.44e-05,53.2175,327.8038,94.9885,265.1203,2.6484e-05,1.34e-06,0.0,0 STARLINK-4295,1 52996U 22076L   23230.51301472  .00000134  00000-0  26484-4 0  9997,2 52996  53.2175 327.8038 0000844  94.9885 265.1203 15.08836190 62284,6917.892,95.438,540.341,539.173,0.0
